{
  "type": "FeatureCollection",
  "features": [
    {
      "type": "Feature",
      "properties": {
        "norad_id": 66661,
        "name": "SNUGLITE-III",
        "group": "last-30-days",
        "lat": -69.70292367976803,
        "lon": -58.01512068035473,
        "alt_km": 587.586122085755,
        "timestamp": "2025-12-19T06:59:42.650556+00:00",
        "meta_object_name": "SNUGLITE-III",
        "meta_object_id": "2025-274M",
        "meta_epoch": "2025-12-18T18:26:46.957920",
        "meta_mean_motion": 14.93129694,
        "meta_eccentricity": 0.00131618,
        "meta_inclination": 97.7403,
        "meta_ra_of_asc_node": 279.8934,
        "meta_arg_of_pericenter": 259.7936,
        "meta_mean_anomaly": 100.1799,
        "meta_ephemeris_type": 0,
        "meta_classification_type": "U",
        "meta_norad_cat_id": 66661,
        "meta_element_set_no": 999,
        "meta_rev_at_epoch": 330,
        "meta_bstar": 0.00018501071,
        "meta_mean_motion_dot": 1.875e-05,
        "meta_mean_motion_ddot": 0,
        "tle_line1": "1 66661U 25274M   25352.76859905  .00001875  00000+0  18501-3 0  9999",
        "tle_line2": "2 66661  97.7403 279.8934 0013161 259.7936 100.1799 14.93129694  3303"
      },
      "geometry": {
        "type": "Point",
        "coordinates": [
          -58.01512068035473,
          -69.70292367976803
        ]
      }
    },
    {
      "type": "Feature",
      "properties": {
        "norad_id": 66662,
        "name": "2025-274N",
        "group": "last-30-days",
        "lat": -65.36722693726819,
        "lon": -62.334330915249595,
        "alt_km": 587.5655915918369,
        "timestamp": "2025-12-19T06:59:42.650566+00:00",
        "meta_object_name": "2025-274N",
        "meta_object_id": "2025-274N",
        "meta_epoch": "2025-12-18T18:25:34.023360",
        "meta_mean_motion": 14.93184285,
        "meta_eccentricity": 0.00135776,
        "meta_inclination": 97.7403,
        "meta_ra_of_asc_node": 279.8949,
        "meta_arg_of_pericenter": 259.5008,
        "meta_mean_anomaly": 100.4682,
        "meta_ephemeris_type": 0,
        "meta_classification_type": "U",
        "meta_norad_cat_id": 66662,
        "meta_element_set_no": 999,
        "meta_rev_at_epoch": 330,
        "meta_bstar": 0.00019777946,
        "meta_mean_motion_dot": 2.012e-05,
        "meta_mean_motion_ddot": 0,
        "tle_line1": "1 66662U 25274N   25352.76775490  .00002012  00000+0  19778-3 0  9997",
        "tle_line2": "2 66662  97.7403 279.8949 0013577 259.5008 100.4682 14.93184285  3300"
      },
      "geometry": {
        "type": "Point",
        "coordinates": [
          -62.334330915249595,
          -65.36722693726819
        ]
      }
    },
    {
      "type": "Feature",
      "properties": {
        "norad_id": 66663,
        "name": "KSLV-II R/B",
        "group": "last-30-days",
        "lat": -81.0879965900583,
        "lon": -19.233053538598245,
        "alt_km": 545.7994075203787,
        "timestamp": "2025-12-19T06:59:42.650580+00:00",
        "meta_object_name": "KSLV-II R/B",
        "meta_object_id": "2025-274P",
        "meta_epoch": "2025-12-18T18:32:36.408768",
        "meta_mean_motion": 14.97428391,
        "meta_eccentricity": 0.00563898,
        "meta_inclination": 97.7433,
        "meta_ra_of_asc_node": 280.0578,
        "meta_arg_of_pericenter": 298.2889,
        "meta_mean_anomaly": 61.265,
        "meta_ephemeris_type": 0,
        "meta_classification_type": "U",
        "meta_norad_cat_id": 66663,
        "meta_element_set_no": 999,
        "meta_rev_at_epoch": 331,
        "meta_bstar": 0.0013157145,
        "meta_mean_motion_dot": 0.00015777,
        "meta_mean_motion_ddot": 0,
        "tle_line1": "1 66663U 25274P   25352.77264362  .00015777  00000+0  13157-2 0  9996",
        "tle_line2": "2 66663  97.7433 280.0578 0056389 298.2889  61.2650 14.97428391  3314"
      },
      "geometry": {
        "type": "Point",
        "coordinates": [
          -19.233053538598245,
          -81.0879965900583
        ]
      }
    },
    {
      "type": "Feature",
      "properties": {
        "norad_id": 66664,
        "name": "SOYUZ-MS 28",
        "group": "last-30-days",
        "lat": -44.10109644444593,
        "lon": -19.8114988601427,
        "alt_km": 420.16698738223204,
        "timestamp": "2025-12-19T06:59:42.650590+00:00",
        "meta_object_name": "SOYUZ-MS 28",
        "meta_object_id": "2025-275A",
        "meta_epoch": "2025-12-18T16:01:23.678688",
        "meta_mean_motion": 15.49654558,
        "meta_eccentricity": 0.00031819,
        "meta_inclination": 51.6314,
        "meta_ra_of_asc_node": 113.1238,
        "meta_arg_of_pericenter": 267.6136,
        "meta_mean_anomaly": 92.4488,
        "meta_ephemeris_type": 0,
        "meta_classification_type": "U",
        "meta_norad_cat_id": 66664,
        "meta_element_set_no": 999,
        "meta_rev_at_epoch": 128,
        "meta_bstar": 0.000138424,
        "meta_mean_motion_dot": 7.358e-05,
        "meta_mean_motion_ddot": 0,
        "tle_line1": "1 66664U 25275A   25352.66763517  .00007358  00000+0  13842-3 0  9990",
        "tle_line2": "2 66664  51.6314 113.1238 0003181 267.6136  92.4488 15.49654558  1281"
      },
      "geometry": {
        "type": "Point",
        "coordinates": [
          -19.8114988601427,
          -44.10109644444593
        ]
      }
    },
    {
      "type": "Feature",
      "properties": {
        "norad_id": 66791,
        "name": "STARLINK-35867",
        "group": "last-30-days",
        "lat": -22.07814998842876,
        "lon": 58.015987215457365,
        "alt_km": 367.2004872641419,
        "timestamp": "2025-12-19T06:59:42.650601+00:00",
        "meta_object_name": "STARLINK-35867",
        "meta_object_id": "2025-278A",
        "meta_epoch": "2025-12-19T00:00:02.000160",
        "meta_mean_motion": 15.68859474,
        "meta_eccentricity": 0.00016115,
        "meta_inclination": 42.9993,
        "meta_ra_of_asc_node": 213.9628,
        "meta_arg_of_pericenter": 270.6704,
        "meta_mean_anomaly": 95.3329,
        "meta_ephemeris_type": 0,
        "meta_classification_type": "U",
        "meta_norad_cat_id": 66791,
        "meta_element_set_no": 999,
        "meta_rev_at_epoch": 396,
        "meta_bstar": -0.018129357,
        "meta_mean_motion_dot": -0.01900425,
        "meta_mean_motion_ddot": 0,
        "tle_line1": "1 66791U 25278A   25353.00002315 -.01900425  00000+0 -18129-1 0  9996",
        "tle_line2": "2 66791  42.9993 213.9628 0001611 270.6704  95.3329 15.68859474  3969"
      },
      "geometry": {
        "type": "Point",
        "coordinates": [
          58.015987215457365,
          -22.07814998842876
        ]
      }
    },
    {
      "type": "Feature",
      "properties": {
        "norad_id": 66792,
        "name": "STARLINK-35990",
        "group": "last-30-days",
        "lat": -23.24441987495315,
        "lon": 59.655808511587274,
        "alt_km": 367.38285581799937,
        "timestamp": "2025-12-19T06:59:42.650612+00:00",
        "meta_object_name": "STARLINK-35990",
        "meta_object_id": "2025-278B",
        "meta_epoch": "2025-12-19T00:00:02.000160",
        "meta_mean_motion": 15.6884119,
        "meta_eccentricity": 0.00016832,
        "meta_inclination": 42.9994,
        "meta_ra_of_asc_node": 213.9584,
        "meta_arg_of_pericenter": 277.2433,
        "meta_mean_anomaly": 90.6883,
        "meta_ephemeris_type": 0,
        "meta_classification_type": "U",
        "meta_norad_cat_id": 66792,
        "meta_element_set_no": 999,
        "meta_rev_at_epoch": 396,
        "meta_bstar": -0.017919451,
        "meta_mean_motion_dot": -0.01879663,
        "meta_mean_motion_ddot": 0,
        "tle_line1": "1 66792U 25278B   25353.00002315 -.01879663  00000+0 -17919-1 0  9992",
        "tle_line2": "2 66792  42.9994 213.9584 0001683 277.2433  90.6883 15.68841190  3962"
      },
      "geometry": {
        "type": "Point",
        "coordinates": [
          59.655808511587274,
          -23.24441987495315
        ]
      }
    },
    {
      "type": "Feature",
      "properties": {
        "norad_id": 66793,
        "name": "STARLINK-36051",
        "group": "last-30-days",
        "lat": -25.525429160673134,
        "lon": 63.02620571697501,
        "alt_km": 367.3492144401689,
        "timestamp": "2025-12-19T06:59:42.650622+00:00",
        "meta_object_name": "STARLINK-36051",
        "meta_object_id": "2025-278C",
        "meta_epoch": "2025-12-19T00:00:02.000160",
        "meta_mean_motion": 15.68857865,
        "meta_eccentricity": 0.00016862,
        "meta_inclination": 42.9991,
        "meta_ra_of_asc_node": 213.9488,
        "meta_arg_of_pericenter": 271.6973,
        "meta_mean_anomaly": 100.0558,
        "meta_ephemeris_type": 0,
        "meta_classification_type": "U",
        "meta_norad_cat_id": 66793,
        "meta_element_set_no": 999,
        "meta_rev_at_epoch": 386,
        "meta_bstar": -0.018088648,
        "meta_mean_motion_dot": -0.01896582,
        "meta_mean_motion_ddot": 0,
        "tle_line1": "1 66793U 25278C   25353.00002315 -.01896582  00000+0 -18089-1 0  9991",
        "tle_line2": "2 66793  42.9991 213.9488 0001686 271.6973 100.0558 15.68857865  3863"
      },
      "geometry": {
        "type": "Point",
        "coordinates": [
          63.02620571697501,
          -25.525429160673134
        ]
      }
    }
  ]
}